#aV2015  4  5  0  0  0.00000000     288 DD+AD WGS84 FIT  NGA
## 1839      0.00000000   300.00000000 57117 0.0000000000000
+   31     1  2  3  4  5  6  7  8  9 10 11 12 13 14 15 16 17
+         18 19 20 21 22 23 24 25 27 28 29 30 31 32  0  0  0
+          0  0  0  0  0  0  0  0  0  0  0  0  0  0  0  0  0
+          0  0  0  0  0  0  0  0  0  0  0  0  0  0  0  0  0
+          0  0  0  0  0  0  0  0  0  0  0  0  0  0  0  0  0
++         2  2  2  2  2  2  2  2  2  2  2  2  2  2  2  2  2
++         2  2  2  2  2  2  2  2  2  2  2  2  2  2  0  0  0
++         0  0  0  0  0  0  0  0  0  0  0  0  0  0  0  0  0
++         0  0  0  0  0  0  0  0  0  0  0  0  0  0  0  0  0
++         0  0  0  0  0  0  0  0  0  0  0  0  0  0  0  0  0
%c cc cc ccc ccc cccc cccc cccc cccc ccccc ccccc ccccc ccccc
%c cc cc ccc ccc cccc cccc cccc cccc ccccc ccccc ccccc ccccc
%f  0.0000000  0.000000000  0.00000000000  0.000000000000000
%f  0.0000000  0.000000000  0.00000000000  0.000000000000000
%i    0    0    0    0      0      0      0      0         0
%i    0    0    0    0      0      0      0      0         0
/*      NGA, ST. LOUIS,MO.                                  
/*   EPHEMERIS COMPUTED FROM  1 DAYS OF DATA                
/*   EPOCHA SMOOTHER                                       
/* CCCCCCCCCCCCCCCCCCCCCCCCCCCCCCCCCCCCCCCCCCCCCCCCCCCCCCCCC
*  2015  4  5  1  5  0.00000000
P  1  13408.732572 -19303.113631  12143.966419     -7.159381                    
V  1  -1286.420354  15704.200439  26453.506711      0.004402                    
P  2 -15135.286826  -3272.681448 -21219.363791    557.808076                    
V  2   5402.861337 -27347.375901    -98.941943      0.023293                    
P  3  20454.194395 -13584.597068 -10170.740634    284.190641                    
V  3  13087.647099  -1332.550910  28030.095690      0.146294                    
P  4  15883.569614 -10416.699384  18139.467580    -10.542543                    
V  4  -3144.952204  23729.600400  16363.082849     -0.009695                    
P  5 -25468.542911   2088.032126  -7629.941004   -257.927850                    
V  5   8318.160746  -5578.854419 -29312.893526      0.048495                    
P  6  -8224.455164 -18264.575339 -17447.676841    127.318175                    
V  6   6670.890317 -21185.368208  19021.277983      0.100780                    
P  7   6310.887728 -25589.210559    590.357799    452.962023                    
V  7   2891.694041    100.545398 -32199.254297      0.027607                    
P  8  12630.536831   7155.038198 -22065.336278     19.194934                    
V  8  -9983.136679  26582.938044   2279.537273      0.003516                    
P  9    366.731885 -18241.084080 -19306.242469   -129.868518                    
V  9  18827.786694  15749.029436 -14542.961339     -0.087238                    
P 10 -12311.837026 -12082.928902 -20676.376117   -169.701584                    
V 10  24137.853094  -7838.429798  -9555.736765     -0.013743                    
P 11  12654.845800 -14683.959936  17580.336991   -569.133206                    
V 11   5262.032035  23261.495213  15329.367982     -0.026503                    
P 12 -22682.776981  11086.394764  -7958.436025    282.210781                    
V 12 -10179.112057    572.876375  30370.347985      0.030709                    
P 13 -20339.870952  -8855.525703  14364.682780   -102.812114                    
V 13 -10534.680536 -15353.092790 -24247.549063     -0.033541                    
P 14  14748.339139  21598.715023   5299.597398     73.289446                    
V 14  -6080.327804  -3115.294038  30850.880941     -0.028149                    
P 15 -17402.745845   4201.709344  19621.155722   -241.706002                    
V 15 -18220.844632 -17338.543548 -12073.783411     -0.021978                    
P 16  25571.847752   -582.729325  -7930.159776   -141.697119                    
V 16  -9265.572410   3617.067334 -30040.691120      0.035547                    
P 17 -14084.619936 -21561.908309   7222.895834   -164.684444                    
V 17   7596.242524   4773.559621  30095.832543     -0.019649                    
P 18  -1661.165312  16968.299360  20798.699092    391.513922                    
V 18 -24625.362896   6769.020070  -7981.659712      0.028464                    
P 19  18591.211229   1456.615624  18908.955131   -506.290863                    
V 19  15177.961896  18894.061684 -15770.528897     -0.012641                    
P 20 -18952.160797  -6891.145742 -17543.533895    306.969691                    
V 20  19793.450282  -9760.263003 -17634.625194      0.039172                    
P 21  -2162.052012  25957.742946   4699.268114   -433.384269                    
V 21  -4874.571095   4256.685506 -30617.783980     -0.038050                    
P 22  11275.539289  12774.013550  20634.783657    336.165874                    
V 22 -24311.197707   8707.079537   7805.733567      0.040282                    
P 23  10854.761950 -10941.005626 -21493.619468    -99.755797                    
V 23  20156.088652  18950.818204    102.377448     -0.025413                    
P 24 -14264.591071  16975.783496  14478.301847    -46.122454                    
V 24   1675.139478 -18597.233951  23540.495109     -0.006051                    
P 25 -12100.672892  15925.447149 -17480.904190    -16.866082                    
V 25 -21524.762426   4959.590972  19679.815497     -0.033680                    
P 27  21965.131378   9751.269048  11416.733954     62.743641                    
V 27   9078.799236  11470.499914 -27132.260949      0.026569                    
P 28  -5454.721477 -13971.370203  22546.867974    430.746293                    
V 28  26360.068755  -6043.606362   2621.483398      0.026890                    
P 29  -4066.552601  16151.979879 -20672.734379    602.364790                    
V 29 -18712.470265 -18449.849054 -10669.800943      0.024104                    
P 30   -371.947364 -24197.858457  10872.273589    -74.434223                    
V 30   6675.238849 -12411.636611 -27419.391925      0.034645                    
P 31   9415.305232  15290.523789 -19320.756604    319.428001                    
V 31  -7778.408373  23678.326200  15177.990622     -0.009322                    
P 32  25885.826071  -3462.794335   2777.415959   -184.034919                    
V 32  -2758.113064   4352.106938  31546.877000      0.094515                    
EOF
